1 37673U 11024A   14056.05966918  .00000886  00000-0  14789-3 0  9998
2 37673 098.0129 064.8685 0001440 103.3517 323.0372 14.72328058145733
